{"type": "FeatureCollection", "features": [ {"type": "Feature", "properties": {"norad_id": 60453, "name": "LEGION 4", "group": "resource", "lat": 3.7297921816348163, "lon": -152.35673026515994, "alt_km": 523.3433809566095, "timestamp": "2025-12-14T16:47:40.340929+00:00", "meta": {"OBJECT_NAME": "LEGION 4", "OBJECT_ID": "2024-146B", "EPOCH": "2025-12-13T13:08:21.585984", "MEAN_MOTION": 15.15836533, "ECCENTRICITY": 0.00094101, "INCLINATION": 45.0394, "RA_OF_ASC_NODE": 37.5554, "ARG_OF_PERICENTER": 315.2837, "MEAN_ANOMALY": 44.7282, "EPHEMERIS_TYPE": 0, "CLASSIFICATION_TYPE": "U", "NORAD_CAT_ID": 60453, "ELEMENT_SET_NO": 999, "REV_AT_EPOCH": 7270, "BSTAR": 0.0003573693, "MEAN_MOTION_DOT": 6.696e-05, "MEAN_MOTION_DDOT": 0}, "tle": {"line1": "1 60453U 24146B   25347.54747206  .00006696  00000+0  35737-3 0  9995", "line2": "2 60453  45.0394  37.5554 0009410 315.2837  44.7282 15.15836533 72700"}}, "geometry": {"type": "Point", "coordinates": [-152.35673026515994, 3.7297921816348163]}}, {"type": "Feature", "properties": {"norad_id": 60989, "name": "SENTINEL-2C", "group": "resource", "lat": 13.506906147279263, "lon": 59.078569944395106, "alt_km": 789.8799196964492, "timestamp": "2025-12-14T16:47:40.340939+00:00", "meta": {"OBJECT_NAME": "SENTINEL-2C", "OBJECT_ID": "2024-157A", "EPOCH": "2025-12-13T18:54:45.715104", "MEAN_MOTION": 14.30818014, "ECCENTRICITY": 0.00012122, "INCLINATION": 98.5682, "RA_OF_ASC_NODE": 60.2555, "ARG_OF_PERICENTER": 97.4854, "MEAN_ANOMALY": 262.6467, "EPHEMERIS_TYPE": 0, "CLASSIFICATION_TYPE": "U", "NORAD_CAT_ID": 60989, "ELEMENT_SET_NO": 999, "REV_AT_EPOCH": 6647, "BSTAR": 9.1394542e-05, "MEAN_MOTION_DOT": 1.96e-06, "MEAN_MOTION_DDOT": 0}, "tle": {"line1": "1 60989U 24157A   25347.78802911  .00000196  00000+0  91395-4 0  9994", "line2": "2 60989  98.5682  60.2555 0001212  97.4854 262.6467 14.30818014 66474"}}, "geometry": {"type": "Point", "coordinates": [59.078569944395106, 13.506906147279263]}}, {"type": "Feature", "properties": {"norad_id": 61735, "name": "IONOSFERA-M 1", "group": "resource", "lat": -42.551000713564605, "lon": 30.414107793683964, "alt_km": 823.3538812804336, "timestamp": "2025-12-14T16:47:40.340949+00:00", "meta": {"OBJECT_NAME": "IONOSFERA-M 1", "OBJECT_ID": "2024-199A", "EPOCH": "2025-12-13T22:52:13.722240", "MEAN_MOTION": 14.2271432, "ECCENTRICITY": 9.011e-05, "INCLINATION": 98.7403, "RA_OF_ASC_NODE": 217.7918, "ARG_OF_PERICENTER": 19.9438, "MEAN_ANOMALY": 340.1775, "EPHEMERIS_TYPE": 0, "CLASSIFICATION_TYPE": "U", "NORAD_CAT_ID": 61735, "ELEMENT_SET_NO": 999, "REV_AT_EPOCH": 10136, "BSTAR": 5.8545233e-05, "MEAN_MOTION_DOT": 8.7e-07, "MEAN_MOTION_DDOT": 0}, "tle": {"line1": "1 61735U 24199A   25347.95293660  .00000087  00000+0  58545-4 0  9993", "line2": "2 61735  98.7403 217.7918 0000901  19.9438 340.1775 14.22714320101368"}}, "geometry": {"type": "Point", "coordinates": [30.414107793683964, -42.551000713564605]}}, {"type": "Feature", "properties": {"norad_id": 61736, "name": "IONOSFERA-M 2", "group": "resource", "lat": 44.99297801790911, "lon": -150.4021168889838, "alt_km": 811.6949813198153, "timestamp": "2025-12-14T16:47:40.340960+00:00", "meta": {"OBJECT_NAME": "IONOSFERA-M 2", "OBJECT_ID": "2024-199B", "EPOCH": "2025-12-13T23:42:07.018272", "MEAN_MOTION": 14.22716535, "ECCENTRICITY": 0.00016787, "INCLINATION": 98.7402, "RA_OF_ASC_NODE": 217.7387, "ARG_OF_PERICENTER": 108.8242, "MEAN_ANOMALY": 251.3118, "EPHEMERIS_TYPE": 0, "CLASSIFICATION_TYPE": "U", "NORAD_CAT_ID": 61736, "ELEMENT_SET_NO": 999, "REV_AT_EPOCH": 10449, "BSTAR": 6.0637894e-05, "MEAN_MOTION_DOT": 9.2e-07, "MEAN_MOTION_DDOT": 0}, "tle": {"line1": "1 61736U 24199B   25347.98758123  .00000092  00000+0  60638-4 0  9999", "line2": "2 61736  98.7402 217.7387 0001678 108.8242 251.3118 14.22716535104492"}}, "geometry": {"type": "Point", "coordinates": [-150.4021168889838, 44.99297801790911]}}, {"type": "Feature", "properties": {"norad_id": 63772, "name": "BIOMASS", "group": "resource", "lat": -13.789298281437286, "lon": -8.3150656907491, "alt_km": 673.8850696207865, "timestamp": "2025-12-14T16:47:40.340969+00:00", "meta": {"OBJECT_NAME": "BIOMASS", "OBJECT_ID": "2025-090A", "EPOCH": "2025-12-13T23:33:02.159136", "MEAN_MOTION": 14.67544461, "ECCENTRICITY": 0.0001146, "INCLINATION": 98.07, "RA_OF_ASC_NODE": 172.9727, "ARG_OF_PERICENTER": 78.7944, "MEAN_ANOMALY": 281.3389, "EPHEMERIS_TYPE": 0, "CLASSIFICATION_TYPE": "U", "NORAD_CAT_ID": 63772, "ELEMENT_SET_NO": 999, "REV_AT_EPOCH": 3352, "BSTAR": 0.00034409202, "MEAN_MOTION_DOT": 1.904e-05, "MEAN_MOTION_DDOT": 0}, "tle": {"line1": "1 63772U 25090A   25347.98127499  .00001904  00000+0  34409-3 0  9997", "line2": "2 63772  98.0700 172.9727 0001146  78.7944 281.3389 14.67544461 33526"}}, "geometry": {"type": "Point", "coordinates": [-8.3150656907491, -13.789298281437286]}}, {"type": "Feature", "properties": {"norad_id": 64694, "name": "GOSAT-GW (IBUKI GW)", "group": "resource", "lat": 42.80891851989541, "lon": -83.34877231538731, "alt_km": 664.5258200517201, "timestamp": "2025-12-14T16:47:40.340979+00:00", "meta": {"OBJECT_NAME": "GOSAT-GW (IBUKI GW)", "OBJECT_ID": "2025-141A", "EPOCH": "2025-12-14T00:14:03.409152", "MEAN_MOTION": 14.67560819, "ECCENTRICITY": 0.00014706, "INCLINATION": 98.0426, "RA_OF_ASC_NODE": 283.4996, "ARG_OF_PERICENTER": 84.2913, "MEAN_ANOMALY": 275.8459, "EPHEMERIS_TYPE": 0, "CLASSIFICATION_TYPE": "U", "NORAD_CAT_ID": 64694, "ELEMENT_SET_NO": 999, "REV_AT_EPOCH": 2468, "BSTAR": 0.00026770698, "MEAN_MOTION_DOT": 1.471e-05, "MEAN_MOTION_DDOT": 0}, "tle": {"line1": "1 64694U 25141A   25348.00976168  .00001471  00000+0  26771-3 0  9999", "line2": "2 64694  98.0426 283.4996 0001470  84.2913 275.8459 14.67560819 24687"}}, "geometry": {"type": "Point", "coordinates": [-83.34877231538731, 42.80891851989541]}}, {"type": "Feature", "properties": {"norad_id": 64876, "name": "IONOSFERA-M 3", "group": "resource", "lat": 77.58762451818058, "lon": -92.79057945833094, "alt_km": 811.7428779349584, "timestamp": "2025-12-14T16:47:40.340989+00:00", "meta": {"OBJECT_NAME": "IONOSFERA-M 3", "OBJECT_ID": "2025-155A", "EPOCH": "2025-12-13T23:31:16.372704", "MEAN_MOTION": 14.2144136, "ECCENTRICITY": 0.00022052, "INCLINATION": 98.5783, "RA_OF_ASC_NODE": 309.811, "ARG_OF_PERICENTER": 58.1587, "MEAN_ANOMALY": 301.9805, "EPHEMERIS_TYPE": 0, "CLASSIFICATION_TYPE": "U", "NORAD_CAT_ID": 64876, "ELEMENT_SET_NO": 999, "REV_AT_EPOCH": 2009, "BSTAR": 7.5466674e-05, "MEAN_MOTION_DOT": 1.22e-06, "MEAN_MOTION_DDOT": 0}, "tle": {"line1": "1 64876U 25155A   25347.98005061  .00000122  00000+0  75467-4 0  9996", "line2": "2 64876  98.5783 309.8110 0002205  58.1587 301.9805 14.21441360 20091"}}, "geometry": {"type": "Point", "coordinates": [-92.79057945833094, 77.58762451818058]}}, {"type": "Feature", "properties": {"norad_id": 64877, "name": "IONOSFERA-M 4", "group": "resource", "lat": -78.06948560926985, "lon": 84.8367265436438, "alt_km": 828.8568379651351, "timestamp": "2025-12-14T16:47:40.341000+00:00", "meta": {"OBJECT_NAME": "IONOSFERA-M 4", "OBJECT_ID": "2025-155B", "EPOCH": "2025-12-14T00:21:45.998208", "MEAN_MOTION": 14.2144254, "ECCENTRICITY": 0.00015808, "INCLINATION": 98.5782, "RA_OF_ASC_NODE": 309.7647, "ARG_OF_PERICENTER": 62.2615, "MEAN_ANOMALY": 297.8723, "EPHEMERIS_TYPE": 0, "CLASSIFICATION_TYPE": "U", "NORAD_CAT_ID": 64877, "ELEMENT_SET_NO": 999, "REV_AT_EPOCH": 2009, "BSTAR": 7.7857142e-05, "MEAN_MOTION_DOT": 1.28e-06, "MEAN_MOTION_DDOT": 0}, "tle": {"line1": "1 64877U 25155B   25348.01511572  .00000128  00000+0  77857-4 0  9992", "line2": "2 64877  98.5782 309.7647 0001580  62.2615 297.8723 14.21442540 20091"}}, "geometry": {"type": "Point", "coordinates": [84.8367265436438, -78.06948560926985]}}, {"type": "Feature", "properties": {"norad_id": 64899, "name": "MICROCARB", "group": "resource", "lat": 51.82857952152126, "lon": 53.704936156408095, "alt_km": 648.8292428543482, "timestamp": "2025-12-14T16:47:40.341009+00:00", "meta": {"OBJECT_NAME": "MICROCARB", "OBJECT_ID": "2025-156A", "EPOCH": "2025-12-13T22:36:41.192352", "MEAN_MOTION": 14.7205943, "ECCENTRICITY": 0.00172236, "INCLINATION": 98.0024, "RA_OF_ASC_NODE": 63.2683, "ARG_OF_PERICENTER": 141.0615, "MEAN_ANOMALY": 219.1837, "EPHEMERIS_TYPE": 0, "CLASSIFICATION_TYPE": "U", "NORAD_CAT_ID": 64899, "ELEMENT_SET_NO": 999, "REV_AT_EPOCH": 2071, "BSTAR": 0.00016727062, "MEAN_MOTION_DOT": 1.004e-05, "MEAN_MOTION_DDOT": 0}, "tle": {"line1": "1 64899U 25156A   25347.94214343  .00001004  00000+0  16727-3 0  9996", "line2": "2 64899  98.0024  63.2683 0017223 141.0615 219.1837 14.72059430 20718"}}, "geometry": {"type": "Point", "coordinates": [53.704936156408095, 51.82857952152126]}}, {"type": "Feature", "properties": {"norad_id": 64900, "name": "CO3D 3", "group": "resource", "lat": 71.8732487929501, "lon": 41.53076589172507, "alt_km": 497.39749794113504, "timestamp": "2025-12-14T16:47:40.341019+00:00", "meta": {"OBJECT_NAME": "CO3D 3", "OBJECT_ID": "2025-156B", "EPOCH": "2025-12-13T16:46:35.865408", "MEAN_MOTION": 15.2020033, "ECCENTRICITY": 0.00013843, "INCLINATION": 97.4344, "RA_OF_ASC_NODE": 64.0523, "ARG_OF_PERICENTER": 93.9049, "MEAN_ANOMALY": 266.2345, "EPHEMERIS_TYPE": 0, "CLASSIFICATION_TYPE": "U", "NORAD_CAT_ID": 64900, "ELEMENT_SET_NO": 999, "REV_AT_EPOCH": 2135, "BSTAR": 0.00015817929, "MEAN_MOTION_DOT": 3.358e-05, "MEAN_MOTION_DDOT": 0}, "tle": {"line1": "1 64900U 25156B   25347.69902622  .00003358  00000+0  15818-3 0  9999", "line2": "2 64900  97.4344  64.0523 0001384  93.9049 266.2345 15.20200330 21357"}}, "geometry": {"type": "Point", "coordinates": [41.53076589172507, 71.8732487929501]}}]}